SCD 1                   
1 22490U 93009B   26204.60793293  .00000382  00000+0  53465-4 0  9990
2 22490  24.9709 342.6986 0041904 163.1844 289.0886 14.46131225766394
TECHSAT 1B (GO-32)      
1 25397U 98043D   26204.45017931  .00000045  00000+0  39520-4 0  9995
2 25397  99.0092 198.1273 0002334 101.8892 258.2548 14.24434535456496
SCD 2                   
1 25504U 98060A   26204.33449237  .00000329  00000+0  41078-4 0  9995
2 25504  24.9935 209.2393 0016895 144.3748 238.6600 14.45536636465562
DLR-TUBSAT              
1 25757U 99029B   26204.59850920  .00000069  00000+0  28767-4 0  9995
2 25757  98.6718 201.3045 0013168 237.0285 122.9644 14.52434613438532
TERRA                   
1 25994U 99068A   26204.60548284  .00000313  00000+0  72618-4 0  9996
2 25994  97.9436 252.7039 0003658 106.2542  53.1960 14.61128532414926
MAROC-TUBSAT            
1 27004U 01056D   26204.30398326 -.00000018  00000+0  32480-4 0  9993
2 27004  99.8105  21.8479 0020465  52.0406  71.8075 13.70263768231133
AQUA                    
1 27424U 02022A   26204.60223932  .00000630  00000+0  13511-3 0  9998
2 27424  98.4303 174.6185 0001373 102.1037 347.1797 14.62137586288591
SHIYAN-1 (SY-1)         
1 28220U 04012A   26204.18611649  .00013523  00000+0  40558-3 0  9999
2 28220  97.8674 284.6144 0004458 238.6247 121.4559 15.34601655216618
AURA                    
1 28376U 04026A   26204.54917605  .00000623  00000+0  13582-3 0  9991
2 28376  98.3436 161.3088 0001443  93.7351 266.4014 14.61376767171525
IRS-P5 (CARTOSAT-1)     
1 28649U 05017A   26204.31581787  .00001026  00000+0  10879-3 0  9992
2 28649  97.5308 225.7421 0000929  58.5890 301.5420 14.91132260149201
SINAH 1                 
1 28893U 05043D   26204.61540844  .00000291  00000+0  64642-4 0  9995
2 28893  98.2903 339.1608 0014976 157.6822 202.5035 14.64179783105857
RESURS-DK 1             
1 29228U 06021A   26204.32442911  .00001589  00000+0  95009-4 0  9991
2 29228  69.9299 245.9974 0007572 262.5212  97.5094 15.13340824108048
ARIRANG-2 (KOMPSAT-2)   
1 29268U 06031A   26204.63751344  .00000338  00000+0  71902-4 0  9990
2 29268  97.8325  27.3229 0013525 323.1464 101.3234 14.64679413 66817
LAPAN-TUBSAT            
1 29709U 07001A   26204.61645749  .00000422  00000+0  54839-4 0  9991
2 29709  98.1364 204.6650 0013568  69.5883 290.6788 14.85981373 56566
HAIYANG-1B              
1 31113U 07010A   26204.36335632  .00000082  00000+0  46813-4 0  9997
2 31113  98.3523 184.8103 0014825  93.6361 266.6519 14.31034891  5817
COSMO-SKYMED 1          
1 31598U 07023A   26204.62610334  .00003145  00000+0  27674-3 0  9998
2 31598  97.8863  36.7917 0001927  92.5596 267.5846 14.97256632 35244
TERRASAR-X              
1 31698U 07026A   26203.49713428  .00000259  00000+0  15523-4 0  9998
2 31698  97.4457 210.7016 0001796  80.1769 279.9668 15.19149840 58581
WORLDVIEW-1 (WV-1)      
1 32060U 07041A   26204.59053524  .00005797  00000+0  23776-3 0  9995
2 32060  97.3901 323.8272 0002337 175.2139 184.9121 15.24629078 48420
YAOGAN-3                
1 32289U 07055A   26204.63917583  .00002599  00000+0  26922-3 0  9995
2 32289  97.8148 234.1570 0001522  85.3562 274.7830 14.90906519 11304
COSMO-SKYMED 2          
1 32376U 07059A   26204.61674472  .00000377  00000+0  53857-4 0  9991
2 32376  97.8898  27.6885 0001479  93.9786 266.1596 14.82155720  7402
RADARSAT-2              
1 32382U 07061A   26204.56260166  .00000222  00000+0  10295-3 0  9993
2 32382  98.5794 210.9763 0001313  85.9543 274.1790 14.29981477971157
CARTOSAT-2A             
1 32783U 08021A   26204.57344509  .00001160  00000+0  16255-3 0  9994
2 32783  97.7617 252.0367 0011759   1.3385 358.7856 14.79285669984189
HUANJING 1A (HJ-1A)     
1 33320U 08041A   26204.57616289  .00001387  00000+0  17205-3 0  9998
2 33320  97.6709 189.0128 0019732  23.7353 336.4767 14.84063543963805
HUANJING 1B (HJ-1B)     
1 33321U 08041B   26204.62943322  .00000542  00000+0  71621-4 0  9991
2 33321  97.6546 192.1249 0037896  64.8078 295.7059 14.83376070963818
GEOEYE 1                
1 33331U 08042A   26204.56418958  .00000362  00000+0  77081-4 0  9994
2 33331  98.1321 278.0617 0003406 315.1129  44.9798 14.64654680955470
THEOS                   
1 33396U 08049A   26204.60581975 -.00000028  00000+0  68102-5 0  9992
2 33396  98.5552 260.7031 0001154  92.3363 267.7946 14.20137494923130
COSMO-SKYMED 3          
1 33412U 08054A   26204.59456110  .00002492  00000+0  16961-3 0  9997
2 33412  97.8254  63.7666 0016821 138.0542 222.1977 15.07155914962426
YAOGAN-4                
1 33446U 08061A   26204.52875062  .00000873  00000+0  11327-3 0  9998
2 33446  97.9302 137.7723 0013219 317.1777  42.8406 14.83263303951058
GOSAT (IBUKI)           
1 33492U 09002A   26204.54763368  .00000512  00000+0  98687-4 0  9997
2 33492  98.0915 315.1783 0001095  93.3128 266.8202 14.67541250936799
DEIMOS-1                
1 35681U 09041A   26204.54121037  .00000613  00000+0  97561-4 0  9995
2 35681  97.7449   0.2017 0002806  81.7069 278.4459 14.75270333912244
