OBJECT_NAME,OBJECT_ID,EPOCH,MEAN_MOTION,ECCENTRICITY,INCLINATION,RA_OF_ASC_NODE,ARG_OF_PERICENTER,MEAN_ANOMALY,EPHEMERIS_TYPE,CLASSIFICATION_TYPE,NORAD_CAT_ID,ELEMENT_SET_NO,REV_AT_EPOCH,BSTAR,MEAN_MOTION_DOT,MEAN_MOTION_DDOT
SCD 1,1993-009B,2026-07-23T14:35:25.405152,14.46131225,.00419045,24.9709,342.6986,163.1844,289.0886,0,U,22490,999,76639,.534654E-4,.382E-5,0
TECHSAT 1B (GO-32),1998-043D,2026-07-23T10:48:15.492384,14.24434535,.00023345,99.0092,198.1273,101.8892,258.2548,0,U,25397,999,45649,.39519646E-4,.45E-6,0
SCD 2,1998-060A,2026-07-23T08:01:40.140768,14.45536636,.00168957,24.9935,209.2393,144.3748,238.6600,0,U,25504,999,46556,.4107763E-4,.329E-5,0
DLR-TUBSAT,1999-029B,2026-07-23T14:21:51.194880,14.52434613,.00131685,98.6718,201.3045,237.0285,122.9644,0,U,25757,999,43853,.28767186E-4,.69E-6,0
TERRA,1999-068A,2026-07-23T14:31:53.717376,14.61128532,.0003658,97.9436,252.7039,106.2542,53.1960,0,U,25994,999,41492,.72618036E-4,.313E-5,0
MAROC-TUBSAT,2001-056D,2026-07-23T07:17:44.153664,13.70263768,.00204651,99.8105,21.8479,52.0406,71.8075,0,U,27004,999,23113,.32479899E-4,-.18E-6,0
AQUA,2002-022A,2026-07-23T14:27:13.477248,14.62137586,.00013736,98.4303,174.6185,102.1037,347.1797,0,U,27424,999,28859,.13511482E-3,.63E-5,0
SHIYAN-1 (SY-1),2004-012A,2026-07-23T04:28:00.464736,15.34601655,.00044588,97.8674,284.6144,238.6247,121.4559,0,U,28220,999,21661,.4055773E-3,.13523E-3,0
AURA,2004-026A,2026-07-23T13:10:48.810720,14.61376767,.00014431,98.3436,161.3088,93.7351,266.4014,0,U,28376,999,17152,.13581884E-3,.623E-5,0
IRS-P5 (CARTOSAT-1),2005-017A,2026-07-23T07:34:46.663968,14.91132260,.00009291,97.5308,225.7421,58.5890,301.5420,0,U,28649,999,14920,.10878656E-3,.1026E-4,0
SINAH 1,2005-043D,2026-07-23T14:46:11.289216,14.64179783,.00149761,98.2903,339.1608,157.6822,202.5035,0,U,28893,999,10585,.64642278E-4,.291E-5,0
RESURS-DK 1,2006-021A,2026-07-23T07:47:10.675104,15.13340824,.00075724,69.9299,245.9974,262.5212,97.5094,0,U,29228,999,10804,.95008953E-4,.1589E-4,0
ARIRANG-2 (KOMPSAT-2),2006-031A,2026-07-23T15:18:01.161216,14.64679413,.00135252,97.8325,27.3229,323.1464,101.3234,0,U,29268,999,6681,.71901873E-4,.338E-5,0
LAPAN-TUBSAT,2007-001A,2026-07-23T14:47:41.927136,14.85981373,.00135688,98.1364,204.6650,69.5883,290.6788,0,U,29709,999,5656,.54839205E-4,.422E-5,0
HAIYANG-1B,2007-010A,2026-07-23T08:43:13.986048,14.31034891,.00148257,98.3523,184.8103,93.6361,266.6519,0,U,31113,999,581,.46812927E-4,.82E-6,0
COSMO-SKYMED 1,2007-023A,2026-07-23T15:01:35.328576,14.97256632,.00019277,97.8863,36.7917,92.5596,267.5846,0,U,31598,999,3524,.27673906E-3,.3145E-4,0
TERRASAR-X,2007-026A,2026-07-22T11:55:52.401792,15.19149840,.00017968,97.4457,210.7016,80.1769,279.9668,0,U,31698,999,5858,.15522946E-4,.259E-5,0
WORLDVIEW-1 (WV-1),2007-041A,2026-07-23T14:10:22.244736,15.24629078,.00023376,97.3901,323.8272,175.2139,184.9121,0,U,32060,999,4842,.23775592E-3,.5797E-4,0
YAOGAN-3,2007-055A,2026-07-23T15:20:24.791712,14.90906519,.00015229,97.8148,234.1570,85.3562,274.7830,0,U,32289,999,1130,.26922079E-3,.2599E-4,0
COSMO-SKYMED 2,2007-059A,2026-07-23T14:48:06.743808,14.82155720,.00014797,97.8898,27.6885,93.9786,266.1596,0,U,32376,999,740,.53857095E-4,.377E-5,0
RADARSAT-2,2007-061A,2026-07-23T13:30:08.783424,14.29981477,.00013132,98.5794,210.9763,85.9543,274.1790,0,U,32382,999,97115,.1029496E-3,.222E-5,0
CARTOSAT-2A,2008-021A,2026-07-23T13:45:45.655776,14.79285669,.00117591,97.7617,252.0367,1.3385,358.7856,0,U,32783,999,98418,.16254889E-3,.116E-4,0
HUANJING 1A (HJ-1A),2008-041A,2026-07-23T13:49:40.473696,14.84063543,.00197322,97.6709,189.0128,23.7353,336.4767,0,U,33320,999,96380,.17205352E-3,.1387E-4,0
HUANJING 1B (HJ-1B),2008-041B,2026-07-23T15:06:23.030208,14.83376070,.00378968,97.6546,192.1249,64.8078,295.7059,0,U,33321,999,96381,.71621055E-4,.542E-5,0
GEOEYE 1,2008-042A,2026-07-23T13:32:25.979712,14.64654680,.00034061,98.1321,278.0617,315.1129,44.9798,0,U,33331,999,95547,.77080922E-4,.362E-5,0
THEOS,2008-049A,2026-07-23T14:32:22.826400,14.20137494,.00011542,98.5552,260.7031,92.3363,267.7946,0,U,33396,999,92313,.6810178E-5,-.28E-6,0
COSMO-SKYMED 3,2008-054A,2026-07-23T14:16:10.079040,15.07155914,.00168214,97.8254,63.7666,138.0542,222.1977,0,U,33412,999,96242,.16961084E-3,.2492E-4,0
YAOGAN-4,2008-061A,2026-07-23T12:41:24.053568,14.83263303,.00132194,97.9302,137.7723,317.1777,42.8406,0,U,33446,999,95105,.11326944E-3,.873E-5,0
GOSAT (IBUKI),2009-002A,2026-07-23T13:08:35.549952,14.67541250,.00010953,98.0915,315.1783,93.3128,266.8202,0,U,33492,999,93679,.98686833E-4,.512E-5,0
DEIMOS-1,2009-041A,2026-07-23T12:59:20.575968,14.75270333,.00028064,97.7449,0.2017,81.7069,278.4459,0,U,35681,999,91224,.97561418E-4,.613E-5,0
